NORAD_CAT_ID,OBJECT_NAME,OBJECT_TYPE,EPOCH,MEAN_MOTION,ECCENTRICITY,INCLINATION,RA_OF_ASC_NODE,ARG_OF_PERICENTER,MEAN_ANOMALY,BSTAR,MEAN_MOTION_DOT,MEAN_MOTION_DDOT,TLE_LINE0,TLE_LINE1,TLE_LINE2,SEMIMAJOR_AXIS,PERIOD,APOGEE,PERIGEE,DECAYED
49167.0,STARLINK-3054,PAYLOAD,2024-02-16 22:43:08,14.98326522,0.0002752,70.0008,29.8601,265.0864,94.9981,0.00011219,1.246e-05,0.0,0 STARLINK-3054,1 49167U 21082AP  24047.94662659  .00001246  00000-0  11219-3 0  9994,2 49167  70.0008  29.8601 0002752 265.0864  94.9981 14.98326522134579,6950.204,96.107,573.981,570.156,0.0
49167.0,STARLINK-3054,PAYLOAD,2024-02-17 08:19:56,14.98331247,0.0002778,70.0008,28.85,265.0808,95.0034,0.00012875,1.444e-05,0.0,0 STARLINK-3054,1 49167U 21082AP  24048.34718387  .00001444  00000-0  12875-3 0  9998,2 49167  70.0008  28.8500 0002778 265.0808  95.0034 14.98331247134641,6950.189,96.107,573.985,570.123,0.0
49167.0,STARLINK-3054,PAYLOAD,2024-02-17 22:45:09,14.98322227,0.0002871,70.0006,27.3337,265.2266,94.8565,0.00014733,1.665e-05,0.0,0 STARLINK-3054,1 49167U 21082AP  24048.94802875  .00001665  00000-0  14733-3 0  9990,2 49167  70.0006  27.3337 0002871 265.2266  94.8565 14.98322227134728,6950.217,96.107,574.077,570.087,0.0
49167.0,STARLINK-3054,PAYLOAD,2024-02-18 03:33:33,14.98329512,0.000273,70.0008,26.8284,266.5332,93.5515,-3.4598e-06,-1.34e-06,0.0,0 STARLINK-3054,1 49167U 21082AP  24049.14830829 -.00000134  00000-0 -34598-5 0  9998,2 49167  70.0008  26.8284 0002730 266.5332  93.5515 14.98329512134766,6950.194,96.107,573.957,570.162,0.0
49167.0,STARLINK-3054,PAYLOAD,2024-02-18 08:21:57,14.9833361,0.0002771,70.001,26.3246,266.8298,93.2544,3.228e-05,2.92e-06,0.0,0 STARLINK-3054,1 49167U 21082AP  24049.34858504  .00000292  00000-0  32280-4 0  9998,2 49167  70.0010  26.3246 0002771 266.8298  93.2544 14.98333610134786,6950.182,96.107,573.973,570.121,0.0
49167.0,STARLINK-3054,PAYLOAD,2024-02-18 22:47:10,14.98332513,0.0002804,70.0013,24.8097,266.9505,93.1333,3.342e-05,3.06e-06,0.0,0 STARLINK-3054,1 49167U 21082AP  24049.94942400  .00000306  00000-0  33420-4 0  9996,2 49167  70.0013  24.8097 0002804 266.9505  93.1333 14.98332513134871,6950.185,96.107,573.999,570.101,0.0
49167.0,STARLINK-3054,PAYLOAD,2024-02-19 03:35:34,14.98332588,0.0002783,70.0011,24.3047,266.5052,93.5789,1.9489e-05,1.4e-06,0.0,0 STARLINK-3054,1 49167U 21082AP  24050.14970403  .00000140  00000-0  19489-4 0  9999,2 49167  70.0011  24.3047 0002783 266.5052  93.5789 14.98332588134914,6950.185,96.107,573.984,570.116,0.0
49167.0,STARLINK-3054,PAYLOAD,2024-02-19 08:23:58,14.98336271,0.0002943,70.0013,23.8,270.5082,89.574,3.3351e-05,3.05e-06,0.0,0 STARLINK-3054,1 49167U 21082AP  24050.34998082  .00000305  00000-0  33351-4 0  9991,2 49167  70.0013  23.8000 0002943 270.5082  89.5740 14.98336271134932,6950.173,96.107,574.084,569.993,0.0
49167.0,STARLINK-3054,PAYLOAD,2024-02-19 22:49:11,14.98317127,0.000276,70.0015,22.2859,268.8651,91.2191,0.00016429,1.867e-05,0.0,0 STARLINK-3054,1 49167U 21082AP  24050.95082902  .00001867  00000-0  16429-3 0  9993,2 49167  70.0015  22.2859 0002760 268.8651  91.2191 14.98317127135028,6950.233,96.108,574.016,570.179,0.0
49167.0,STARLINK-3054,PAYLOAD,2024-02-20 03:37:35,14.98323735,0.0002832,70.0015,21.7808,269.9289,90.1545,2.3208e-05,1.84e-06,0.0,0 STARLINK-3054,1 49167U 21082AP  24051.15110935  .00000184  00000-0  23208-4 0  9999,2 49167  70.0015  21.7808 0002832 269.9289  90.1545 14.98323735135062,6950.212,96.107,574.046,570.109,0.0
49167.0,STARLINK-3054,PAYLOAD,2024-02-20 14:50:32,14.98330124,0.0002766,70.0016,20.6027,268.3318,91.7525,-2.3198e-05,-3.7e-06,0.0,0 STARLINK-3054,1 49167U 21082AP  24051.61842772 -.00000370  00000-0 -23198-4 0  9998,2 49167  70.0016  20.6027 0002766 268.3318  91.7525 14.98330124135128,6950.193,96.107,573.98,570.135,0.0
49167.0,STARLINK-3054,PAYLOAD,2024-02-20 22:51:12,14.98333184,0.0002868,70.0018,19.7609,271.6278,88.4553,6.6153e-05,6.97e-06,0.0,0 STARLINK-3054,1 49167U 21082AP  24051.95222228  .00000697  00000-0  66153-4 0  9991,2 49167  70.0018  19.7609 0002868 271.6278  88.4553 14.98333184135178,6950.183,96.107,574.041,570.055,0.0
49167.0,STARLINK-3054,PAYLOAD,2024-02-21 03:39:36,14.98331019,0.0002956,70.0013,19.2551,271.517,88.565,2.8035e-05,2.42e-06,0.0,0 STARLINK-3054,1 49167U 21082AP  24052.15250432  .00000242  00000-0  28035-4 0  9995,2 49167  70.0013  19.2551 0002956 271.5170  88.5650 14.98331019135211,6950.19,96.107,574.109,570.0,0.0
49167.0,STARLINK-3054,PAYLOAD,2024-02-21 06:51:51,14.9835005,0.0002917,70.0013,18.9194,270.239,89.8435,-0.00017593,-2.193e-05,0.0,0 STARLINK-3054,1 49167U 21082AP  24052.28601591 -.00002193  00000-0 -17593-3 0  9990,2 49167  70.0013  18.9194 0002917 270.2390  89.8435 14.98350050135230,6950.131,96.106,574.023,569.969,0.0
49167.0,STARLINK-3054,PAYLOAD,2024-02-21 14:52:32,14.9833848,0.0002603,70.0022,18.0773,270.8124,89.2737,-9.4036e-05,-1.215e-05,0.0,0 STARLINK-3054,1 49167U 21082AP  24052.61982173 -.00001215  00000-0 -94036-4 0  9997,2 49167  70.0022  18.0773 0002603 270.8124  89.2737 14.98338480135273,6950.167,96.106,573.841,570.223,0.0
49167.0,STARLINK-3054,PAYLOAD,2024-02-21 22:53:13,14.98326474,0.0002784,70.0029,17.2375,266.515,93.5691,5.942e-05,6.16e-06,0.0,0 STARLINK-3054,1 49167U 21082AP  24052.95362526  .00000616  00000-0  59420-4 0  9998,2 49167  70.0029  17.2375 0002784 266.5150  93.5691 14.98326474135323,6950.204,96.107,574.004,570.134,0.0
49167.0,STARLINK-3054,PAYLOAD,2024-02-22 03:41:37,14.98323365,0.0002962,70.0011,16.7307,265.9104,94.1716,1.2363e-05,5.5e-07,0.0,0 STARLINK-3054,1 49167U 21082AP  24053.15390857  .00000055  00000-0  12363-4 0  9991,2 49167  70.0011  16.7307 0002962 265.9104  94.1716 14.98323365135368,6950.213,96.107,574.137,570.02,0.0
49167.0,STARLINK-3054,PAYLOAD,2024-02-22 06:53:53,14.98325276,0.0002858,70.0016,16.3954,265.7195,94.3637,7.7468e-05,8.31e-06,0.0,0 STARLINK-3054,1 49167U 21082AP  24053.28742619  .00000831  00000-0  77468-4 0  9991,2 49167  70.0016  16.3954 0002858 265.7195  94.3637 14.98325276135377,6950.207,96.107,574.059,570.086,0.0
49167.0,STARLINK-3054,PAYLOAD,2024-02-22 22:55:14,14.98329034,0.0003005,70.0012,14.7106,269.2619,90.8196,-1.7227e-06,-1.14e-06,0.0,0 STARLINK-3054,1 49167U 21082AP  24053.95502560 -.00000114  00000-0 -17227-5 0  9998,2 49167  70.0012  14.7106 0003005 269.2619  90.8196 14.98329034135477,6950.196,96.107,574.149,569.972,0.0
49167.0,STARLINK-3054,PAYLOAD,2024-02-23 03:43:38,14.98331553,0.0002885,70.0014,14.2055,266.0132,94.0697,-1.826e-05,-3.11e-06,0.0,0 STARLINK-3054,1 49167U 21082AP  24054.15530428 -.00000311  00000-0 -18260-4 0  9991,2 49167  70.0014  14.2055 0002885 266.0132  94.0697 14.98331553135513,6950.188,96.107,574.058,570.048,0.0
49167.0,STARLINK-3054,PAYLOAD,2024-02-23 06:55:54,14.98334434,0.0002803,70.0017,13.8695,264.5476,95.5363,9.624e-06,2.2e-07,0.0,0 STARLINK-3054,1 49167U 21082AP  24054.28882163  .00000022  00000-0  96240-5 0  9993,2 49167  70.0017  13.8695 0002803 264.5476  95.5363 14.98334434135523,6950.179,96.107,573.992,570.096,0.0
49167.0,STARLINK-3054,PAYLOAD,2024-02-23 22:57:15,14.98326432,0.0002839,70.0016,12.1855,268.0391,92.0443,2.6278e-05,2.21e-06,0.0,0 STARLINK-3054,1 49167U 21082AP  24054.95642585  .00000221  00000-0  26278-4 0  9993,2 49167  70.0016  12.1855 0002839 268.0391  92.0443 14.98326432135627,6950.204,96.107,574.042,570.096,0.0
49167.0,STARLINK-3054,PAYLOAD,2024-02-24 03:45:39,14.98326689,0.0002691,70.002,11.6814,264.0386,96.0466,1.2762e-05,5.9e-07,0.0,0 STARLINK-3054,1 49167U 21082AP  24055.15670657  .00000059  00000-0  12762-4 0  9999,2 49167  70.0020  11.6814 0002691 264.0386  96.0466 14.98326689135664,6950.203,96.107,573.938,570.198,0.0
49167.0,STARLINK-3054,PAYLOAD,2024-02-24 06:57:55,14.98328297,0.0002664,70.0021,11.3451,268.0798,92.0055,3.3511e-05,3.07e-06,0.0,0 STARLINK-3054,1 49167U 21082AP  24055.29022578  .00000307  00000-0  33511-4 0  9998,2 49167  70.0021  11.3451 0002664 268.0798  92.0055 14.98328297135678,6950.198,96.107,573.915,570.212,0.0
49167.0,STARLINK-3054,PAYLOAD,2024-02-24 19:46:59,14.98334483,0.0002933,70.0016,9.9974,267.6599,92.4225,8.8309e-05,9.61e-06,0.0,0 STARLINK-3054,1 49167U 21082AP  24055.82429871  .00000961  00000-0  88309-4 0  9995,2 49167  70.0016   9.9974 0002933 267.6599  92.4225 14.98334483135765,6950.179,96.107,574.083,570.006,0.0
49167.0,STARLINK-3054,PAYLOAD,2024-02-25 03:47:39,14.98341497,0.0002357,70.0022,9.1573,278.6181,81.471,0.00013537,1.523e-05,0.0,0 STARLINK-3054,1 49167U 21082AP  24056.15809284  .00001523  00000-0  13537-3 0  9997,2 49167  70.0022   9.1573 0002357 278.6181  81.4710 14.98341497135814,6950.157,96.106,573.66,570.384,0.0
49167.0,STARLINK-3054,PAYLOAD,2024-02-25 13:24:27,14.98338649,0.0001982,70.007,8.1435,303.3455,56.7514,0.0001138,1.266e-05,0.0,0 STARLINK-3054,1 49167U 21082AP  24056.55865291  .00001266  00000-0  11380-3 0  9999,2 49167  70.0070   8.1435 0001982 303.3455  56.7514 14.98338649135863,6950.166,96.106,573.409,570.654,0.0
49167.0,STARLINK-3054,PAYLOAD,2024-02-25 19:49:00,14.98333749,0.0002157,70.0021,7.4746,270.9856,89.1056,5.49e-05,5.62e-06,0.0,0 STARLINK-3054,1 49167U 21082AP  24056.82569496  .00000562  00000-0  54900-4 0  9991,2 49167  70.0021   7.4746 0002157 270.9856  89.1056 14.98333749135918,6950.181,96.107,573.545,570.547,0.0
49167.0,STARLINK-3054,PAYLOAD,2024-02-25 23:01:16,14.98329378,0.0002294,70.0028,7.1384,268.4631,91.6265,4.2475e-05,4.14e-06,0.0,0 STARLINK-3054,1 49167U 21082AP  24056.95921718  .00000414  00000-0  42475-4 0  9994,2 49167  70.0028   7.1384 0002294 268.4631  91.6265 14.98329378135929,6950.195,96.107,573.654,570.465,0.0
49167.0,STARLINK-3054,PAYLOAD,2024-02-26 03:49:40,14.98325538,0.0002206,70.0034,6.634,254.2437,105.8478,-6.4958e-06,-1.7e-06,0.0,0 STARLINK-3054,1 49167U 21082AP  24057.15950043 -.00000170  00000-0 -64958-5 0  9992,2 49167  70.0034   6.6340 0002206 254.2437 105.8478 14.98325538135964,6950.207,96.107,573.605,570.538,0.0
